CCSDS_OMM_VERS = 2.0
CREATION_DATE  = 
ORIGINATOR     = 

OBJECT_NAME    = PROGRESS-MS 32
OBJECT_ID      = 2025-204A
CENTER_NAME    = EARTH
REF_FRAME      = TEME
TIME_SYSTEM    = UTC
MEAN_ELEMENT_THEORY = SGP/SGP4

EPOCH          = 2025-11-17T13:52:20.934912
MEAN_MOTION    = 15.49761331
ECCENTRICITY   = .00041819
INCLINATION    = 51.6331
RA_OF_ASC_NODE = 267.0194
ARG_OF_PERICENTER = 81.0565
MEAN_ANOMALY   = 279.0897

EPHEMERIS_TYPE = 0
CLASSIFICATION_TYPE = U
NORAD_CAT_ID   = 65586
ELEMENT_SET_NO = 999
REV_AT_EPOCH   = 27
BSTAR          = .2908666E-3
MEAN_MOTION_DOT = .16042E-3
MEAN_MOTION_DDOT = 0

CCSDS_OMM_VERS = 2.0
CREATION_DATE  = 
ORIGINATOR     = 

OBJECT_NAME    = CYGNUS NG-23
OBJECT_ID      = 2025-208A
CENTER_NAME    = EARTH
REF_FRAME      = TEME
TIME_SYSTEM    = UTC
MEAN_ELEMENT_THEORY = SGP/SGP4

EPOCH          = 2025-11-17T13:52:20.934912
MEAN_MOTION    = 15.49761331
ECCENTRICITY   = .00041819
INCLINATION    = 51.6331
RA_OF_ASC_NODE = 267.0194
ARG_OF_PERICENTER = 81.0565
MEAN_ANOMALY   = 279.0897

EPHEMERIS_TYPE = 0
CLASSIFICATION_TYPE = U
NORAD_CAT_ID   = 65616
ELEMENT_SET_NO = 999
REV_AT_EPOCH   = 22
BSTAR          = .2908666E-3
MEAN_MOTION_DOT = .16042E-3
MEAN_MOTION_DDOT = 0

CCSDS_OMM_VERS = 2.0
CREATION_DATE  = 
ORIGINATOR     = 

OBJECT_NAME    = DRAGONFLY
OBJECT_ID      = 1998-067XH
CENTER_NAME    = EARTH
REF_FRAME      = TEME
TIME_SYSTEM    = UTC
MEAN_ELEMENT_THEORY = SGP/SGP4

EPOCH          = 2025-11-18T01:37:41.667168
MEAN_MOTION    = 15.64137736
ECCENTRICITY   = .0005128
INCLINATION    = 51.6305
RA_OF_ASC_NODE = 261.2981
ARG_OF_PERICENTER = 140.2196
MEAN_ANOMALY   = 219.9175

EPHEMERIS_TYPE = 0
CLASSIFICATION_TYPE = U
NORAD_CAT_ID   = 65729
ELEMENT_SET_NO = 999
REV_AT_EPOCH   = 929
BSTAR          = .12275E-2
MEAN_MOTION_DOT = .120116E-2
MEAN_MOTION_DDOT = 0

CCSDS_OMM_VERS = 2.0
CREATION_DATE  = 
ORIGINATOR     = 

OBJECT_NAME    = 1998-067XJ
OBJECT_ID      = 1998-067XJ
CENTER_NAME    = EARTH
REF_FRAME      = TEME
TIME_SYSTEM    = UTC
MEAN_ELEMENT_THEORY = SGP/SGP4

EPOCH          = 2025-11-18T02:24:45.489600
MEAN_MOTION    = 15.82118198
ECCENTRICITY   = .0011841
INCLINATION    = 51.6231
RA_OF_ASC_NODE = 258.4854
ARG_OF_PERICENTER = 139.6096
MEAN_ANOMALY   = 220.5788

EPHEMERIS_TYPE = 0
CLASSIFICATION_TYPE = U
NORAD_CAT_ID   = 65730
ELEMENT_SET_NO = 999
REV_AT_EPOCH   = 933
BSTAR          = .25348E-2
MEAN_MOTION_DOT = .56832E-2
MEAN_MOTION_DDOT = 0

CCSDS_OMM_VERS = 2.0
CREATION_DATE  = 
ORIGINATOR     = 

OBJECT_NAME    = 1998-067XK
OBJECT_ID      = 1998-067XK
CENTER_NAME    = EARTH
REF_FRAME      = TEME
TIME_SYSTEM    = UTC
MEAN_ELEMENT_THEORY = SGP/SGP4

EPOCH          = 2025-11-18T01:20:11.062176
MEAN_MOTION    = 15.60805960
ECCENTRICITY   = .0005941
INCLINATION    = 51.6317
RA_OF_ASC_NODE = 261.9663
ARG_OF_PERICENTER = 119.8279
MEAN_ANOMALY   = 240.3305

EPHEMERIS_TYPE = 0
CLASSIFICATION_TYPE = U
NORAD_CAT_ID   = 65731
ELEMENT_SET_NO = 999
REV_AT_EPOCH   = 928
BSTAR          = .93893E-3
MEAN_MOTION_DOT = .80151E-3
MEAN_MOTION_DDOT = 0

CCSDS_OMM_VERS = 2.0
CREATION_DATE  = 
ORIGINATOR     = 

OBJECT_NAME    = RSP-03
OBJECT_ID      = 1998-067XL
CENTER_NAME    = EARTH
REF_FRAME      = TEME
TIME_SYSTEM    = UTC
MEAN_ELEMENT_THEORY = SGP/SGP4

EPOCH          = 2025-11-18T02:16:04.914048
MEAN_MOTION    = 15.62410883
ECCENTRICITY   = .0006644
INCLINATION    = 51.6299
RA_OF_ASC_NODE = 261.4708
ARG_OF_PERICENTER = 121.8909
MEAN_ANOMALY   = 238.2732

EPHEMERIS_TYPE = 0
CLASSIFICATION_TYPE = U
NORAD_CAT_ID   = 65732
ELEMENT_SET_NO = 999
REV_AT_EPOCH   = 930
BSTAR          = .11057E-2
MEAN_MOTION_DOT = .100833E-2
MEAN_MOTION_DDOT = 0

CCSDS_OMM_VERS = 2.0
CREATION_DATE  = 
ORIGINATOR     = 

OBJECT_NAME    = GHS-01
OBJECT_ID      = 1998-067XM
CENTER_NAME    = EARTH
REF_FRAME      = TEME
TIME_SYSTEM    = UTC
MEAN_ELEMENT_THEORY = SGP/SGP4

EPOCH          = 2025-11-18T01:11:28.908096
MEAN_MOTION    = 15.65393457
ECCENTRICITY   = .0006014
INCLINATION    = 51.6302
RA_OF_ASC_NODE = 261.1742
ARG_OF_PERICENTER = 142.2508
MEAN_ANOMALY   = 217.8910

EPHEMERIS_TYPE = 0
CLASSIFICATION_TYPE = U
NORAD_CAT_ID   = 65733
ELEMENT_SET_NO = 999
REV_AT_EPOCH   = 930
BSTAR          = .1351E-2
MEAN_MOTION_DOT = .139401E-2
MEAN_MOTION_DDOT = 0

CCSDS_OMM_VERS = 2.0
CREATION_DATE  = 
ORIGINATOR     = 

OBJECT_NAME    = YOTSUBA-KULOVER
OBJECT_ID      = 1998-067XN
CENTER_NAME    = EARTH
REF_FRAME      = TEME
TIME_SYSTEM    = UTC
MEAN_ELEMENT_THEORY = SGP/SGP4

EPOCH          = 2025-11-17T02:38:54.138048
MEAN_MOTION    = 15.55617620
ECCENTRICITY   = .00024749
INCLINATION    = 51.6312
RA_OF_ASC_NODE = 268.3984
ARG_OF_PERICENTER = 81.0207
MEAN_ANOMALY   = 279.1065

EPHEMERIS_TYPE = 0
CLASSIFICATION_TYPE = U
NORAD_CAT_ID   = 65941
ELEMENT_SET_NO = 999
REV_AT_EPOCH   = 586
BSTAR          = .11166532E-2
MEAN_MOTION_DOT = .78359E-3
MEAN_MOTION_DDOT = 0

CCSDS_OMM_VERS = 2.0
CREATION_DATE  = 
ORIGINATOR     = 

OBJECT_NAME    = BOTAN
OBJECT_ID      = 1998-067XP
CENTER_NAME    = EARTH
REF_FRAME      = TEME
TIME_SYSTEM    = UTC
MEAN_ELEMENT_THEORY = SGP/SGP4

EPOCH          = 2025-11-17T00:40:17.449536
MEAN_MOTION    = 15.57284856
ECCENTRICITY   = .00046956
INCLINATION    = 51.6307
RA_OF_ASC_NODE = 268.5992
ARG_OF_PERICENTER = 89.3927
MEAN_ANOMALY   = 270.7602

EPHEMERIS_TYPE = 0
CLASSIFICATION_TYPE = U
NORAD_CAT_ID   = 65942
ELEMENT_SET_NO = 999
REV_AT_EPOCH   = 585
BSTAR          = .14083563E-2
MEAN_MOTION_DOT = .105692E-2
MEAN_MOTION_DDOT = 0

CCSDS_OMM_VERS = 2.0
CREATION_DATE  = 
ORIGINATOR     = 

OBJECT_NAME    = E-KAGAKU-1
OBJECT_ID      = 1998-067XQ
CENTER_NAME    = EARTH
REF_FRAME      = TEME
TIME_SYSTEM    = UTC
MEAN_ELEMENT_THEORY = SGP/SGP4

EPOCH          = 2025-11-17T13:25:51.739968
MEAN_MOTION    = 15.55674183
ECCENTRICITY   = .00041425
INCLINATION    = 51.6316
RA_OF_ASC_NODE = 266.1503
ARG_OF_PERICENTER = 74.4411
MEAN_ANOMALY   = 285.7037

EPHEMERIS_TYPE = 0
CLASSIFICATION_TYPE = U
NORAD_CAT_ID   = 65943
ELEMENT_SET_NO = 999
REV_AT_EPOCH   = 593
BSTAR          = .99011252E-3
MEAN_MOTION_DOT = .69505E-3
MEAN_MOTION_DDOT = 0

CCSDS_OMM_VERS = 2.0
CREATION_DATE  = 
ORIGINATOR     = 

OBJECT_NAME    = HTV-X1
OBJECT_ID      = 2025-241A
CENTER_NAME    = EARTH
REF_FRAME      = TEME
TIME_SYSTEM    = UTC
MEAN_ELEMENT_THEORY = SGP/SGP4

EPOCH          = 2025-11-17T13:52:20.934912
MEAN_MOTION    = 15.49761331
ECCENTRICITY   = .00041819
INCLINATION    = 51.6331
RA_OF_ASC_NODE = 267.0194
ARG_OF_PERICENTER = 81.0565
MEAN_ANOMALY   = 279.0897

EPHEMERIS_TYPE = 0
CLASSIFICATION_TYPE = U
NORAD_CAT_ID   = 66174
ELEMENT_SET_NO = 999
REV_AT_EPOCH   = 145
BSTAR          = .2908666E-3
MEAN_MOTION_DOT = .16042E-3
MEAN_MOTION_DDOT = 0

