PROGRESS-MS 32          
1 65586U 25204A   25321.57802008  .00016042  00000+0  29087-3 0  9997
2 65586  51.6331 267.0194 0004181  81.0565 279.0897 15.49761331   270
CYGNUS NG-23            
1 65616U 25208A   25321.57802008  .00016042  00000+0  29087-3 0  9995
2 65616  51.6331 267.0194 0004181  81.0565 279.0897 15.49761331   229
DRAGONFLY               
1 65729U 98067XH  25322.06784337  .00120116  00000+0  12275-2 0  9990
2 65729  51.6305 261.2981 0005128 140.2196 219.9175 15.64137736  9296
1998-067XJ              
1 65730U 98067XJ  25322.10052650  .00568320  00000+0  25348-2 0  9991
2 65730  51.6231 258.4854 0011841 139.6096 220.5788 15.82118198  9337
1998-067XK              
1 65731U 98067XK  25322.05568359  .00080151  00000+0  93893-3 0  9996
2 65731  51.6317 261.9663 0005941 119.8279 240.3305 15.60805960  9282
RSP-03                  
1 65732U 98067XL  25322.09450132  .00100833  00000+0  11057-2 0  9991
2 65732  51.6299 261.4708 0006644 121.8909 238.2732 15.62410883  9302
GHS-01                  
1 65733U 98067XM  25322.04964014  .00139401  00000+0  13510-2 0  9995
2 65733  51.6302 261.1742 0006014 142.2508 217.8910 15.65393457  9307
YOTSUBA-KULOVER         
1 65941U 98067XN  25321.11034882  .00078359  00000+0  11167-2 0  9994
2 65941  51.6312 268.3984 0002474  81.0207 279.1065 15.55617620  5867
BOTAN                   
1 65942U 98067XP  25321.02797974  .00105692  00000+0  14084-2 0  9995
2 65942  51.6307 268.5992 0004695  89.3927 270.7602 15.57284856  5856
E-KAGAKU-1              
1 65943U 98067XQ  25321.55962662  .00069505  00000+0  99011-3 0  9998
2 65943  51.6316 266.1503 0004142  74.4411 285.7037 15.55674183  5930
HTV-X1                  
1 66174U 25241A   25321.57802008  .00016042  00000+0  29087-3 0  9992
2 66174  51.6331 267.0194 0004181  81.0565 279.0897 15.49761331  1455
